COSMOS 2251 DEB         
1 35071U 93036AJA 17344.32528056  .00000428  00000-0  62138-4 0  9995
2 35071  73.9429 217.6258 0112844  83.6701 277.7310 14.75233826464268
